{
  "type": "FeatureCollection",
  "name": "NongNghiep_HoaTien_Fields",
  "crs": {
    "type": "name",
    "properties": {
      "name": "urn:ogc:def:crs:OGC:1.3:CRS84"
    }
  },
  "features": [
    {
      "type": "Feature",
      "id": "zone_1",
      "properties": {
        "name": "La Châu",
        "tong_dt": 42026.0,
        "dt_ha": 4.2,
        "quy_1": 34592.0,
        "quy_2": 7434.0,
        "so_thua": 67,
        "so_ho": 49,
        "so_chu": 52,
        "to_list": "Tổ 1, Tổ 2, Tổ 3, Tổ 4, Tổ 5, nan",
        "center": [
          15.972,
          108.19
        ]
      },
      "geometry": {
        "type": "Polygon",
        "coordinates": [
          [
            [
              108.195075,
              15.972
            ],
            [
              108.192537,
              15.976225
            ],
            [
              108.187463,
              15.976225
            ],
            [
              108.184925,
              15.972
            ],
            [
              108.187463,
              15.967775
            ],
            [
              108.192537,
              15.967775
            ],
            [
              108.195075,
              15.972
            ]
          ]
        ]
      }
    },
    {
      "type": "Feature",
      "id": "zone_2",
      "properties": {
        "name": "La Bông Tây",
        "tong_dt": 36042.0,
        "dt_ha": 3.6,
        "quy_1": 30108.0,
        "quy_2": 5934.0,
        "so_thua": 61,
        "so_ho": 27,
        "so_chu": 42,
        "to_list": "Tổ 1, Tổ 2, Tổ 3, Tổ 5, nan",
        "center": [
          15.969,
          108.188
        ]
      },
      "geometry": {
        "type": "Polygon",
        "coordinates": [
          [
            [
              108.194095,
              15.969
            ],
            [
              108.189652,
              15.971751
            ],
            [
              108.184952,
              15.974075
            ],
            [
              108.184696,
              15.969
            ],
            [
              108.184952,
              15.963925
            ],
            [
              108.189652,
              15.966249
            ],
            [
              108.194095,
              15.969
            ]
          ]
        ]
      }
    },
    {
      "type": "Feature",
      "id": "zone_3",
      "properties": {
        "name": "Gò ổi",
        "tong_dt": 27986.0,
        "dt_ha": 2.8,
        "quy_1": 23139.0,
        "quy_2": 4847.0,
        "so_thua": 56,
        "so_ho": 37,
        "so_chu": 42,
        "to_list": "Tổ 1, Tổ 2, Tổ 3, Tổ 4, Tổ 5, nan",
        "center": [
          15.96,
          108.191
        ]
      },
      "geometry": {
        "type": "Polygon",
        "coordinates": [
          [
            [
              108.19647,
              15.96
            ],
            [
              108.192406,
              15.962341
            ],
            [
              108.188265,
              15.964555
            ],
            [
              108.188188,
              15.96
            ],
            [
              108.188265,
              15.955445
            ],
            [
              108.192406,
              15.957659
            ],
            [
              108.19647,
              15.96
            ]
          ]
        ]
      }
    },
    {
      "type": "Feature",
      "id": "zone_4",
      "properties": {
        "name": "Trung đồng",
        "tong_dt": 24314.0,
        "dt_ha": 2.43,
        "quy_1": 24314.0,
        "quy_2": 0.0,
        "so_thua": 38,
        "so_ho": 27,
        "so_chu": 29,
        "to_list": "Tổ 1, Tổ 2, Tổ 3, Tổ 4, Tổ 5, Tổ 8, nan",
        "center": [
          15.965,
          108.196
        ]
      },
      "geometry": {
        "type": "Polygon",
        "coordinates": [
          [
            [
              108.200052,
              15.965
            ],
            [
              108.197834,
              15.968054
            ],
            [
              108.193974,
              15.968374
            ],
            [
              108.192332,
              15.965
            ],
            [
              108.193974,
              15.961626
            ],
            [
              108.197834,
              15.961946
            ],
            [
              108.200052,
              15.965
            ]
          ]
        ]
      }
    },
    {
      "type": "Feature",
      "id": "zone_5",
      "properties": {
        "name": "Ven Tây Tịnh",
        "tong_dt": 22595.0,
        "dt_ha": 2.26,
        "quy_1": 0.0,
        "quy_2": 22595.0,
        "so_thua": 41,
        "so_ho": 35,
        "so_chu": 40,
        "to_list": "Tổ 1, Tổ 3, Tổ 5, Tổ 6, Tổ 7, Tổ 8, nan",
        "center": [
          15.958,
          108.193
        ]
      },
      "geometry": {
        "type": "Polygon",
        "coordinates": [
          [
            [
              108.195727,
              15.958
            ],
            [
              108.195357,
              15.961926
            ],
            [
              108.191636,
              15.960271
            ],
            [
              108.188285,
              15.958
            ],
            [
              108.191636,
              15.955729
            ],
            [
              108.195357,
              15.954074
            ],
            [
              108.195727,
              15.958
            ]
          ]
        ]
      }
    },
    {
      "type": "Feature",
      "id": "zone_6",
      "properties": {
        "name": "Khe - Tờ 15",
        "tong_dt": 21125.0,
        "dt_ha": 2.11,
        "quy_1": 16641.0,
        "quy_2": 4484.0,
        "so_thua": 36,
        "so_ho": 30,
        "so_chu": 31,
        "to_list": "Tổ 1, Tổ 2, Tổ 3, Tổ 4, nan",
        "center": [
          15.957,
          108.188
        ]
      },
      "geometry": {
        "type": "Polygon",
        "coordinates": [
          [
            [
              108.19038,
              15.957
            ],
            [
              108.190408,
              15.96101
            ],
            [
              108.18681,
              15.958982
            ],
            [
              108.183185,
              15.957
            ],
            [
              108.18681,
              15.955018
            ],
            [
              108.190408,
              15.95299
            ],
            [
              108.19038,
              15.957
            ]
          ]
        ]
      }
    },
    {
      "type": "Feature",
      "id": "zone_7",
      "properties": {
        "name": "Ven Sông",
        "tong_dt": 19083.0,
        "dt_ha": 1.91,
        "quy_1": 11303.0,
        "quy_2": 7780.0,
        "so_thua": 39,
        "so_ho": 16,
        "so_chu": 18,
        "to_list": "Tổ 1, Tổ 2, Tổ 5, Tổ 6, Tổ 7, nan",
        "center": [
          15.975,
          108.194
        ]
      },
      "geometry": {
        "type": "Polygon",
        "coordinates": [
          [
            [
              108.197083,
              15.975
            ],
            [
              108.195879,
              15.978128
            ],
            [
              108.192459,
              15.977566
            ],
            [
              108.190243,
              15.975
            ],
            [
              108.192459,
              15.972434
            ],
            [
              108.195879,
              15.971872
            ],
            [
              108.197083,
              15.975
            ]
          ]
        ]
      }
    },
    {
      "type": "Feature",
      "id": "zone_8",
      "properties": {
        "name": "Lô 14",
        "tong_dt": 16171.0,
        "dt_ha": 1.62,
        "quy_1": 16171.0,
        "quy_2": 0.0,
        "so_thua": 20,
        "so_ho": 14,
        "so_chu": 18,
        "to_list": "Tổ 1, Tổ 2, Tổ 5, Tổ 6, Tổ 7, Tổ 8",
        "center": [
          15.9636,
          108.1978
        ]
      },
      "geometry": {
        "type": "Polygon",
        "coordinates": [
          [
            [
              108.201678,
              15.9636
            ],
            [
              108.199009,
              15.965613
            ],
            [
              108.195861,
              15.966829
            ],
            [
              108.195382,
              15.9636
            ],
            [
              108.195861,
              15.960371
            ],
            [
              108.199009,
              15.961587
            ],
            [
              108.201678,
              15.9636
            ]
          ]
        ]
      }
    },
    {
      "type": "Feature",
      "id": "zone_9",
      "properties": {
        "name": "Trung đồng A",
        "tong_dt": 15816.0,
        "dt_ha": 1.58,
        "quy_1": 14976.0,
        "quy_2": 840.0,
        "so_thua": 22,
        "so_ho": 14,
        "so_chu": 16,
        "to_list": "Tổ 6, Tổ 8, nan",
        "center": [
          15.966,
          108.199
        ]
      },
      "geometry": {
        "type": "Polygon",
        "coordinates": [
          [
            [
              108.2032,
              15.966
            ],
            [
              108.200013,
              15.967687
            ],
            [
              108.1969,
              15.969497
            ],
            [
              108.196974,
              15.966
            ],
            [
              108.1969,
              15.962503
            ],
            [
              108.200013,
              15.964313
            ],
            [
              108.2032,
              15.966
            ]
          ]
        ]
      }
    },
    {
      "type": "Feature",
      "id": "zone_10",
      "properties": {
        "name": "Bàu",
        "tong_dt": 15377.0,
        "dt_ha": 1.54,
        "quy_1": 13250.0,
        "quy_2": 2127.0,
        "so_thua": 20,
        "so_ho": 19,
        "so_chu": 20,
        "to_list": "Tổ 1, Tổ 2, Tổ 3, Tổ 4, Tổ 5, Tổ 7, Tổ 8, nan",
        "center": [
          15.962,
          108.187
        ]
      },
      "geometry": {
        "type": "Polygon",
        "coordinates": [
          [
            [
              108.190516,
              15.962
            ],
            [
              108.188312,
              15.964184
            ],
            [
              108.185242,
              15.964928
            ],
            [
              108.184377,
              15.962
            ],
            [
              108.185242,
              15.959072
            ],
            [
              108.188312,
              15.959816
            ],
            [
              108.190516,
              15.962
            ]
          ]
        ]
      }
    },
    {
      "type": "Feature",
      "id": "zone_11",
      "properties": {
        "name": "Lô 17",
        "tong_dt": 13715.0,
        "dt_ha": 1.37,
        "quy_1": 13715.0,
        "quy_2": 0.0,
        "so_thua": 19,
        "so_ho": 17,
        "so_chu": 19,
        "to_list": "Tổ 2, Tổ 5, Tổ 6, Tổ 7, nan",
        "center": [
          15.957,
          108.1978
        ]
      },
      "geometry": {
        "type": "Polygon",
        "coordinates": [
          [
            [
              108.200142,
              15.957
            ],
            [
              108.199528,
              15.959877
            ],
            [
              108.196629,
              15.95895
            ],
            [
              108.194344,
              15.957
            ],
            [
              108.196629,
              15.95505
            ],
            [
              108.199528,
              15.954123
            ],
            [
              108.200142,
              15.957
            ]
          ]
        ]
      }
    },
    {
      "type": "Feature",
      "id": "zone_12",
      "properties": {
        "name": "Lô 11",
        "tong_dt": 12730.0,
        "dt_ha": 1.27,
        "quy_1": 12730.0,
        "quy_2": 0.0,
        "so_thua": 13,
        "so_ho": 13,
        "so_chu": 13,
        "to_list": "Tổ 2, Tổ 5, Tổ 6, Tổ 7, Tổ 8, nan",
        "center": [
          15.957,
          108.1954
        ]
      },
      "geometry": {
        "type": "Polygon",
        "coordinates": [
          [
            [
              108.197207,
              15.957
            ],
            [
              108.197289,
              15.960146
            ],
            [
              108.194496,
              15.958505
            ],
            [
              108.191621,
              15.957
            ],
            [
              108.194496,
              15.955495
            ],
            [
              108.197289,
              15.953854
            ],
            [
              108.197207,
              15.957
            ]
          ]
        ]
      }
    },
    {
      "type": "Feature",
      "id": "zone_13",
      "properties": {
        "name": "Lô 12",
        "tong_dt": 12600.0,
        "dt_ha": 1.26,
        "quy_1": 12600.0,
        "quy_2": 0.0,
        "so_thua": 12,
        "so_ho": 10,
        "so_chu": 12,
        "to_list": "Tổ 2, Tổ 3, Tổ 5, Tổ 6, Tổ 7, Tổ 8",
        "center": [
          15.968,
          108.1978
        ]
      },
      "geometry": {
        "type": "Polygon",
        "coordinates": [
          [
            [
              108.200053,
              15.968
            ],
            [
              108.199452,
              15.970752
            ],
            [
              108.196674,
              15.969875
            ],
            [
              108.194495,
              15.968
            ],
            [
              108.196674,
              15.966125
            ],
            [
              108.199452,
              15.965248
            ],
            [
              108.200053,
              15.968
            ]
          ]
        ]
      }
    },
    {
      "type": "Feature",
      "id": "zone_14",
      "properties": {
        "name": "Lô 2",
        "tong_dt": 12490.0,
        "dt_ha": 1.25,
        "quy_1": 11700.0,
        "quy_2": 790.0,
        "so_thua": 14,
        "so_ho": 11,
        "so_chu": 14,
        "to_list": "Tổ 2, Tổ 4, Tổ 5, Tổ 7, Tổ 8, nan",
        "center": [
          15.9636,
          108.193
        ]
      },
      "geometry": {
        "type": "Polygon",
        "coordinates": [
          [
            [
              108.196177,
              15.9636
            ],
            [
              108.194178,
              15.965562
            ],
            [
              108.191412,
              15.966245
            ],
            [
              108.190644,
              15.9636
            ],
            [
              108.191412,
              15.960955
            ],
            [
              108.194178,
              15.961638
            ],
            [
              108.196177,
              15.9636
            ]
          ]
        ]
      }
    },
    {
      "type": "Feature",
      "id": "zone_15",
      "properties": {
        "name": "Lô 9",
        "tong_dt": 12342.0,
        "dt_ha": 1.23,
        "quy_1": 12342.0,
        "quy_2": 0.0,
        "so_thua": 15,
        "so_ho": 13,
        "so_chu": 14,
        "to_list": "Tổ 1, Tổ 3, Tổ 4, Tổ 5, Tổ 6, Tổ 7, Tổ 8",
        "center": [
          15.9614,
          108.1954
        ]
      },
      "geometry": {
        "type": "Polygon",
        "coordinates": [
          [
            [
              108.199112,
              15.9614
            ],
            [
              108.196294,
              15.962889
            ],
            [
              108.193544,
              15.96449
            ],
            [
              108.193611,
              15.9614
            ],
            [
              108.193544,
              15.95831
            ],
            [
              108.196294,
              15.959911
            ],
            [
              108.199112,
              15.9614
            ]
          ]
        ]
      }
    },
    {
      "type": "Feature",
      "id": "zone_16",
      "properties": {
        "name": "Lô 6",
        "tong_dt": 12317.0,
        "dt_ha": 1.23,
        "quy_1": 11747.0,
        "quy_2": 570.0,
        "so_thua": 21,
        "so_ho": 19,
        "so_chu": 21,
        "to_list": "Tổ 2, Tổ 3, Tổ 4, Tổ 5, Tổ 6, Tổ 7, nan",
        "center": [
          15.968,
          108.1954
        ]
      },
      "geometry": {
        "type": "Polygon",
        "coordinates": [
          [
            [
              108.198778,
              15.968
            ],
            [
              108.196458,
              15.969762
            ],
            [
              108.193711,
              15.970813
            ],
            [
              108.193283,
              15.968
            ],
            [
              108.193711,
              15.965187
            ],
            [
              108.196458,
              15.966238
            ],
            [
              108.198778,
              15.968
            ]
          ]
        ]
      }
    },
    {
      "type": "Feature",
      "id": "zone_17",
      "properties": {
        "name": "Lô 18",
        "tong_dt": 12303.0,
        "dt_ha": 1.23,
        "quy_1": 11631.0,
        "quy_2": 672.0,
        "so_thua": 13,
        "so_ho": 12,
        "so_chu": 13,
        "to_list": "Tổ 5, Tổ 6, Tổ 7",
        "center": [
          15.968,
          108.2002
        ]
      },
      "geometry": {
        "type": "Polygon",
        "coordinates": [
          [
            [
              108.202667,
              15.968
            ],
            [
              108.201712,
              15.970519
            ],
            [
              108.198967,
              15.970054
            ],
            [
              108.197175,
              15.968
            ],
            [
              108.198967,
              15.965946
            ],
            [
              108.201712,
              15.965481
            ],
            [
              108.202667,
              15.968
            ]
          ]
        ]
      }
    },
    {
      "type": "Feature",
      "id": "zone_18",
      "properties": {
        "name": "Lô 3",
        "tong_dt": 12250.0,
        "dt_ha": 1.23,
        "quy_1": 12250.0,
        "quy_2": 0.0,
        "so_thua": 18,
        "so_ho": 15,
        "so_chu": 18,
        "to_list": "Tổ 2, Tổ 3, Tổ 4, Tổ 5, Tổ 6, Tổ 7, Tổ 8, nan",
        "center": [
          15.9614,
          108.193
        ]
      },
      "geometry": {
        "type": "Polygon",
        "coordinates": [
          [
            [
              108.19481,
              15.9614
            ],
            [
              108.194835,
              15.964455
            ],
            [
              108.192095,
              15.962907
            ],
            [
              108.189331,
              15.9614
            ],
            [
              108.192095,
              15.959893
            ],
            [
              108.194835,
              15.958345
            ],
            [
              108.19481,
              15.9614
            ]
          ]
        ]
      }
    },
    {
      "type": "Feature",
      "id": "zone_19",
      "properties": {
        "name": "Lô 10",
        "tong_dt": 12214.0,
        "dt_ha": 1.22,
        "quy_1": 11734.0,
        "quy_2": 480.0,
        "so_thua": 16,
        "so_ho": 14,
        "so_chu": 16,
        "to_list": "Tổ 3, Tổ 5, Tổ 6, Tổ 7, Tổ 8, nan",
        "center": [
          15.9592,
          108.1954
        ]
      },
      "geometry": {
        "type": "Polygon",
        "coordinates": [
          [
            [
              108.197411,
              15.9592
            ],
            [
              108.19713,
              15.962082
            ],
            [
              108.194395,
              15.960874
            ],
            [
              108.191939,
              15.9592
            ],
            [
              108.194395,
              15.957526
            ],
            [
              108.19713,
              15.956318
            ],
            [
              108.197411,
              15.9592
            ]
          ]
        ]
      }
    },
    {
      "type": "Feature",
      "id": "zone_20",
      "properties": {
        "name": "Lô 7",
        "tong_dt": 12030.0,
        "dt_ha": 1.2,
        "quy_1": 12030.0,
        "quy_2": 0.0,
        "so_thua": 16,
        "so_ho": 12,
        "so_chu": 15,
        "to_list": "Tổ 1, Tổ 2, Tổ 5, Tổ 7, Tổ 8",
        "center": [
          15.9658,
          108.1954
        ]
      },
      "geometry": {
        "type": "Polygon",
        "coordinates": [
          [
            [
              108.198259,
              15.9658
            ],
            [
              108.196686,
              15.967941
            ],
            [
              108.193971,
              15.96818
            ],
            [
              108.192828,
              15.9658
            ],
            [
              108.193971,
              15.96342
            ],
            [
              108.196686,
              15.963659
            ],
            [
              108.198259,
              15.9658
            ]
          ]
        ]
      }
    },
    {
      "type": "Feature",
      "id": "zone_21",
      "properties": {
        "name": "Lô 13",
        "tong_dt": 12010.0,
        "dt_ha": 1.2,
        "quy_1": 12010.0,
        "quy_2": 0.0,
        "so_thua": 14,
        "so_ho": 12,
        "so_chu": 13,
        "to_list": "Tổ 2, Tổ 3, Tổ 5, Tổ 6, Tổ 7, nan",
        "center": [
          15.9658,
          108.1978
        ]
      },
      "geometry": {
        "type": "Polygon",
        "coordinates": [
          [
            [
              108.201387,
              15.9658
            ],
            [
              108.198719,
              15.967331
            ],
            [
              108.196006,
              15.968787
            ],
            [
              108.195961,
              15.9658
            ],
            [
              108.196006,
              15.962813
            ],
            [
              108.198719,
              15.964269
            ],
            [
              108.201387,
              15.9658
            ]
          ]
        ]
      }
    },
    {
      "type": "Feature",
      "id": "zone_22",
      "properties": {
        "name": "Lô 16",
        "tong_dt": 11902.0,
        "dt_ha": 1.19,
        "quy_1": 11902.0,
        "quy_2": 0.0,
        "so_thua": 19,
        "so_ho": 17,
        "so_chu": 19,
        "to_list": "Tổ 1, Tổ 2, Tổ 5, Tổ 6, Tổ 7, nan",
        "center": [
          15.9592,
          108.1978
        ]
      },
      "geometry": {
        "type": "Polygon",
        "coordinates": [
          [
            [
              108.201298,
              15.9592
            ],
            [
              108.198752,
              15.960785
            ],
            [
              108.196051,
              15.962113
            ],
            [
              108.195897,
              15.9592
            ],
            [
              108.196051,
              15.956287
            ],
            [
              108.198752,
              15.957615
            ],
            [
              108.201298,
              15.9592
            ]
          ]
        ]
      }
    },
    {
      "type": "Feature",
      "id": "zone_23",
      "properties": {
        "name": "Lô 5",
        "tong_dt": 11857.0,
        "dt_ha": 1.19,
        "quy_1": 10020.0,
        "quy_2": 1837.0,
        "so_thua": 15,
        "so_ho": 13,
        "so_chu": 15,
        "to_list": "Tổ 1, Tổ 5, Tổ 6, Tổ 7, Tổ 8, nan",
        "center": [
          15.957,
          108.193
        ]
      },
      "geometry": {
        "type": "Polygon",
        "coordinates": [
          [
            [
              108.195687,
              15.957
            ],
            [
              108.194352,
              15.959251
            ],
            [
              108.191656,
              15.959237
            ],
            [
              108.190296,
              15.957
            ],
            [
              108.191656,
              15.954763
            ],
            [
              108.194352,
              15.954749
            ],
            [
              108.195687,
              15.957
            ]
          ]
        ]
      }
    },
    {
      "type": "Feature",
      "id": "zone_24",
      "properties": {
        "name": "Cây Da",
        "tong_dt": 11800.0,
        "dt_ha": 1.18,
        "quy_1": 11419.0,
        "quy_2": 381.0,
        "so_thua": 17,
        "so_ho": 17,
        "so_chu": 17,
        "to_list": "Tổ 1, Tổ 2, Tổ 3, Tổ 4, Tổ 5",
        "center": [
          15.958591,
          108.189633
        ]
      },
      "geometry": {
        "type": "Polygon",
        "coordinates": [
          [
            [
              108.191519,
              15.958591
            ],
            [
              108.191379,
              15.961499
            ],
            [
              108.18869,
              15.960162
            ],
            [
              108.186141,
              15.958591
            ],
            [
              108.18869,
              15.957021
            ],
            [
              108.191379,
              15.955684
            ],
            [
              108.191519,
              15.958591
            ]
          ]
        ]
      }
    },
    {
      "type": "Feature",
      "id": "zone_25",
      "properties": {
        "name": "Lô 8",
        "tong_dt": 10591.0,
        "dt_ha": 1.06,
        "quy_1": 10591.0,
        "quy_2": 0.0,
        "so_thua": 16,
        "so_ho": 14,
        "so_chu": 16,
        "to_list": "Tổ 2, Tổ 3, Tổ 5, Tổ 6, Tổ 7, Tổ 8",
        "center": [
          15.9636,
          108.1954
        ]
      },
      "geometry": {
        "type": "Polygon",
        "coordinates": [
          [
            [
              108.197133,
              15.9636
            ],
            [
              108.197081,
              15.966399
            ],
            [
              108.194533,
              15.965043
            ],
            [
              108.192038,
              15.9636
            ],
            [
              108.194533,
              15.962157
            ],
            [
              108.197081,
              15.960801
            ],
            [
              108.197133,
              15.9636
            ]
          ]
        ]
      }
    },
    {
      "type": "Feature",
      "id": "zone_26",
      "properties": {
        "name": "Lô 1",
        "tong_dt": 10295.0,
        "dt_ha": 1.03,
        "quy_1": 10295.0,
        "quy_2": 0.0,
        "so_thua": 14,
        "so_ho": 11,
        "so_chu": 14,
        "to_list": "Tổ 1, Tổ 3, Tổ 5, Tổ 6, Tổ 7",
        "center": [
          15.9658,
          108.193
        ]
      },
      "geometry": {
        "type": "Polygon",
        "coordinates": [
          [
            [
              108.195394,
              15.9658
            ],
            [
              108.194315,
              15.967989
            ],
            [
              108.191803,
              15.967794
            ],
            [
              108.190371,
              15.9658
            ],
            [
              108.191803,
              15.963806
            ],
            [
              108.194315,
              15.963611
            ],
            [
              108.195394,
              15.9658
            ]
          ]
        ]
      }
    },
    {
      "type": "Feature",
      "id": "zone_27",
      "properties": {
        "name": "Lô 19",
        "tong_dt": 9822.0,
        "dt_ha": 0.98,
        "quy_1": 9300.0,
        "quy_2": 522.0,
        "so_thua": 9,
        "so_ho": 7,
        "so_chu": 9,
        "to_list": "Tổ 1, Tổ 5, Tổ 6, nan",
        "center": [
          15.9658,
          108.2002
        ]
      },
      "geometry": {
        "type": "Polygon",
        "coordinates": [
          [
            [
              108.203314,
              15.9658
            ],
            [
              108.201097,
              15.967293
            ],
            [
              108.198643,
              15.968392
            ],
            [
              108.198407,
              15.9658
            ],
            [
              108.198643,
              15.963208
            ],
            [
              108.201097,
              15.964307
            ],
            [
              108.203314,
              15.9658
            ]
          ]
        ]
      }
    },
    {
      "type": "Feature",
      "id": "zone_28",
      "properties": {
        "name": "Kề Vườn, Vườn Nghi",
        "tong_dt": 9513.0,
        "dt_ha": 0.95,
        "quy_1": 8716.0,
        "quy_2": 797.0,
        "so_thua": 22,
        "so_ho": 16,
        "so_chu": 16,
        "to_list": "Tổ 2, Tổ 3, Tổ 4, Tổ 5",
        "center": [
          15.958564,
          108.201886
        ]
      },
      "geometry": {
        "type": "Polygon",
        "coordinates": [
          [
            [
              108.205115,
              15.958564
            ],
            [
              108.202686,
              15.959896
            ],
            [
              108.200271,
              15.961253
            ],
            [
              108.200287,
              15.958564
            ],
            [
              108.200271,
              15.955875
            ],
            [
              108.202686,
              15.957233
            ],
            [
              108.205115,
              15.958564
            ]
          ]
        ]
      }
    },
    {
      "type": "Feature",
      "id": "zone_29",
      "properties": {
        "name": "Lô 4(Thớt 1)",
        "tong_dt": 9440.0,
        "dt_ha": 0.94,
        "quy_1": 0.0,
        "quy_2": 9440.0,
        "so_thua": 24,
        "so_ho": 13,
        "so_chu": 24,
        "to_list": "Tổ 2, Tổ 5, Tổ 6, Tổ 7, nan",
        "center": [
          15.957,
          108.2074
        ]
      },
      "geometry": {
        "type": "Polygon",
        "coordinates": [
          [
            [
              108.210035,
              15.957
            ],
            [
              108.208488,
              15.958811
            ],
            [
              108.206082,
              15.959194
            ],
            [
              108.205225,
              15.957
            ],
            [
              108.206082,
              15.954806
            ],
            [
              108.208488,
              15.955189
            ],
            [
              108.210035,
              15.957
            ]
          ]
        ]
      }
    },
    {
      "type": "Feature",
      "id": "zone_30",
      "properties": {
        "name": "Lô 14 Thổ",
        "tong_dt": 9339.0,
        "dt_ha": 0.93,
        "quy_1": 9142.0,
        "quy_2": 197.0,
        "so_thua": 19,
        "so_ho": 18,
        "so_chu": 19,
        "to_list": "Tổ 1, Tổ 2, Tổ 3, Tổ 5, Tổ 6, Tổ 7, Tổ 8",
        "center": [
          15.9636,
          108.1978
        ]
      },
      "geometry": {
        "type": "Polygon",
        "coordinates": [
          [
            [
              108.199632,
              15.9636
            ],
            [
              108.199276,
              15.966058
            ],
            [
              108.196884,
              15.965125
            ],
            [
              108.194847,
              15.9636
            ],
            [
              108.196884,
              15.962075
            ],
            [
              108.199276,
              15.961142
            ],
            [
              108.199632,
              15.9636
            ]
          ]
        ]
      }
    },
    {
      "type": "Feature",
      "id": "zone_31",
      "properties": {
        "name": "Hà Ra 26",
        "tong_dt": 8600.0,
        "dt_ha": 0.86,
        "quy_1": 8373.0,
        "quy_2": 227.0,
        "so_thua": 10,
        "so_ho": 9,
        "so_chu": 10,
        "to_list": "Tổ 1, Tổ 2",
        "center": [
          15.9624,
          108.2065
        ]
      },
      "geometry": {
        "type": "Polygon",
        "coordinates": [
          [
            [
              108.207995,
              15.9624
            ],
            [
              108.208048,
              15.964978
            ],
            [
              108.205752,
              15.963645
            ],
            [
              108.203404,
              15.9624
            ],
            [
              108.205752,
              15.961155
            ],
            [
              108.208048,
              15.959822
            ],
            [
              108.207995,
              15.9624
            ]
          ]
        ]
      }
    },
    {
      "type": "Feature",
      "id": "zone_32",
      "properties": {
        "name": "Hà Ra 32",
        "tong_dt": 8405.0,
        "dt_ha": 0.84,
        "quy_1": 8405.0,
        "quy_2": 0.0,
        "so_thua": 10,
        "so_ho": 9,
        "so_chu": 10,
        "to_list": "Tổ 2, Tổ 3",
        "center": [
          15.958,
          108.2115
        ]
      },
      "geometry": {
        "type": "Polygon",
        "coordinates": [
          [
            [
              108.213446,
              15.958
            ],
            [
              108.212797,
              15.960159
            ],
            [
              108.210527,
              15.95962
            ],
            [
              108.208907,
              15.958
            ],
            [
              108.210527,
              15.95638
            ],
            [
              108.212797,
              15.955841
            ],
            [
              108.213446,
              15.958
            ]
          ]
        ]
      }
    },
    {
      "type": "Feature",
      "id": "zone_33",
      "properties": {
        "name": "Lô 1,2,3,4,5-Màu",
        "tong_dt": 8031.0,
        "dt_ha": 0.8,
        "quy_1": 0.0,
        "quy_2": 8031.0,
        "so_thua": 16,
        "so_ho": 14,
        "so_chu": 15,
        "to_list": "Tổ 1, Tổ 5, Tổ 6, Tổ 7",
        "center": [
          15.9614,
          113.1298
        ]
      },
      "geometry": {
        "type": "Polygon",
        "coordinates": [
          [
            [
              113.13245,
              15.9614
            ],
            [
              113.130693,
              15.962888
            ],
            [
              113.128475,
              15.963607
            ],
            [
              113.128013,
              15.9614
            ],
            [
              113.128475,
              15.959193
            ],
            [
              113.130693,
              15.959912
            ],
            [
              113.13245,
              15.9614
            ]
          ]
        ]
      }
    },
    {
      "type": "Feature",
      "id": "zone_34",
      "properties": {
        "name": "Hà Ra 33",
        "tong_dt": 7885.0,
        "dt_ha": 0.79,
        "quy_1": 7885.0,
        "quy_2": 0.0,
        "so_thua": 10,
        "so_ho": 8,
        "so_chu": 10,
        "to_list": "Tổ 1, Tổ 2, Tổ 3, Tổ 5",
        "center": [
          15.9602,
          108.2115
        ]
      },
      "geometry": {
        "type": "Polygon",
        "coordinates": [
          [
            [
              108.214474,
              15.9602
            ],
            [
              108.212211,
              15.961384
            ],
            [
              108.210013,
              15.962676
            ],
            [
              108.210078,
              15.9602
            ],
            [
              108.210013,
              15.957724
            ],
            [
              108.212211,
              15.959016
            ],
            [
              108.214474,
              15.9602
            ]
          ]
        ]
      }
    },
    {
      "type": "Feature",
      "id": "zone_35",
      "properties": {
        "name": "Hà Ra 20",
        "tong_dt": 7789.0,
        "dt_ha": 0.78,
        "quy_1": 7174.0,
        "quy_2": 615.0,
        "so_thua": 10,
        "so_ho": 9,
        "so_chu": 10,
        "to_list": "Tổ 1, Tổ 2, Tổ 3, Tổ 4",
        "center": [
          15.958,
          108.204
        ]
      },
      "geometry": {
        "type": "Polygon",
        "coordinates": [
          [
            [
              108.206593,
              15.958
            ],
            [
              108.204888,
              15.959479
            ],
            [
              108.202704,
              15.960159
            ],
            [
              108.202223,
              15.958
            ],
            [
              108.202704,
              15.955841
            ],
            [
              108.204888,
              15.956521
            ],
            [
              108.206593,
              15.958
            ]
          ]
        ]
      }
    },
    {
      "type": "Feature",
      "id": "zone_36",
      "properties": {
        "name": "Hà Ra 27",
        "tong_dt": 7626.0,
        "dt_ha": 0.76,
        "quy_1": 7626.0,
        "quy_2": 0.0,
        "so_thua": 8,
        "so_ho": 6,
        "so_chu": 8,
        "to_list": "Tổ 1, Tổ 3",
        "center": [
          15.9646,
          108.2065
        ]
      },
      "geometry": {
        "type": "Polygon",
        "coordinates": [
          [
            [
              108.208335,
              15.9646
            ],
            [
              108.207744,
              15.966672
            ],
            [
              108.205582,
              15.966128
            ],
            [
              108.204012,
              15.9646
            ],
            [
              108.205582,
              15.963072
            ],
            [
              108.207744,
              15.962528
            ],
            [
              108.208335,
              15.9646
            ]
          ]
        ]
      }
    },
    {
      "type": "Feature",
      "id": "zone_37",
      "properties": {
        "name": "Lô 12 Thổ",
        "tong_dt": 7610.0,
        "dt_ha": 0.76,
        "quy_1": 7610.0,
        "quy_2": 0.0,
        "so_thua": 10,
        "so_ho": 9,
        "so_chu": 10,
        "to_list": "Tổ 1, Tổ 3, Tổ 5, Tổ 6, nan",
        "center": [
          15.968,
          108.1978
        ]
      },
      "geometry": {
        "type": "Polygon",
        "coordinates": [
          [
            [
              108.199204,
              15.968
            ],
            [
              108.199258,
              15.970427
            ],
            [
              108.197098,
              15.969169
            ],
            [
              108.194885,
              15.968
            ],
            [
              108.197098,
              15.966831
            ],
            [
              108.199258,
              15.965573
            ],
            [
              108.199204,
              15.968
            ]
          ]
        ]
      }
    },
    {
      "type": "Feature",
      "id": "zone_38",
      "properties": {
        "name": "Hà Ra 21",
        "tong_dt": 7597.0,
        "dt_ha": 0.76,
        "quy_1": 7597.0,
        "quy_2": 0.0,
        "so_thua": 14,
        "so_ho": 13,
        "so_chu": 14,
        "to_list": "Tổ 1, Tổ 2, Tổ 3",
        "center": [
          15.9602,
          108.204
        ]
      },
      "geometry": {
        "type": "Polygon",
        "coordinates": [
          [
            [
              108.205668,
              15.9602
            ],
            [
              108.205324,
              15.962405
            ],
            [
              108.203166,
              15.961588
            ],
            [
              108.201352,
              15.9602
            ],
            [
              108.203166,
              15.958812
            ],
            [
              108.205324,
              15.957995
            ],
            [
              108.205668,
              15.9602
            ]
          ]
        ]
      }
    },
    {
      "type": "Feature",
      "id": "zone_39",
      "properties": {
        "name": "Hà Ra 29",
        "tong_dt": 7580.0,
        "dt_ha": 0.76,
        "quy_1": 7580.0,
        "quy_2": 0.0,
        "so_thua": 9,
        "so_ho": 9,
        "so_chu": 9,
        "to_list": "Tổ 1, Tổ 2, Tổ 3, Tổ 4",
        "center": [
          15.9602,
          108.209
        ]
      },
      "geometry": {
        "type": "Polygon",
        "coordinates": [
          [
            [
              108.211381,
              15.9602
            ],
            [
              108.209965,
              15.961807
            ],
            [
              108.20781,
              15.962182
            ],
            [
              108.20707,
              15.9602
            ],
            [
              108.20781,
              15.958218
            ],
            [
              108.209965,
              15.958593
            ],
            [
              108.211381,
              15.9602
            ]
          ]
        ]
      }
    },
    {
      "type": "Feature",
      "id": "zone_40",
      "properties": {
        "name": "Hà Ra 22",
        "tong_dt": 7475.0,
        "dt_ha": 0.75,
        "quy_1": 7475.0,
        "quy_2": 0.0,
        "so_thua": 12,
        "so_ho": 11,
        "so_chu": 12,
        "to_list": "Tổ 1, Tổ 2, Tổ 3, Tổ 5, nan",
        "center": [
          15.9624,
          108.204
        ]
      },
      "geometry": {
        "type": "Polygon",
        "coordinates": [
          [
            [
              108.206868,
              15.9624
            ],
            [
              108.204706,
              15.963576
            ],
            [
              108.202566,
              15.964788
            ],
            [
              108.202588,
              15.9624
            ],
            [
              108.202566,
              15.960012
            ],
            [
              108.204706,
              15.961224
            ],
            [
              108.206868,
              15.9624
            ]
          ]
        ]
      }
    },
    {
      "type": "Feature",
      "id": "zone_41",
      "properties": {
        "name": "Hà Ra 23",
        "tong_dt": 7456.0,
        "dt_ha": 0.75,
        "quy_1": 7456.0,
        "quy_2": 0.0,
        "so_thua": 13,
        "so_ho": 12,
        "so_chu": 12,
        "to_list": "Tổ 1, Tổ 2, Tổ 3, Tổ 4, nan",
        "center": [
          15.9646,
          108.204
        ]
      },
      "geometry": {
        "type": "Polygon",
        "coordinates": [
          [
            [
              108.2067,
              15.9646
            ],
            [
              108.204788,
              15.965912
            ],
            [
              108.20265,
              15.966848
            ],
            [
              108.202425,
              15.9646
            ],
            [
              108.20265,
              15.962352
            ],
            [
              108.204788,
              15.963288
            ],
            [
              108.2067,
              15.9646
            ]
          ]
        ]
      }
    },
    {
      "type": "Feature",
      "id": "zone_42",
      "properties": {
        "name": "Hà Ra 28",
        "tong_dt": 7440.0,
        "dt_ha": 0.74,
        "quy_1": 7440.0,
        "quy_2": 0.0,
        "so_thua": 9,
        "so_ho": 6,
        "so_chu": 8,
        "to_list": "Tổ 1, Tổ 2, Tổ 3",
        "center": [
          15.958,
          108.209
        ]
      },
      "geometry": {
        "type": "Polygon",
        "coordinates": [
          [
            [
              108.211016,
              15.958
            ],
            [
              108.210127,
              15.959877
            ],
            [
              108.207992,
              15.959678
            ],
            [
              108.206745,
              15.958
            ],
            [
              108.207992,
              15.956322
            ],
            [
              108.210127,
              15.956123
            ],
            [
              108.211016,
              15.958
            ]
          ]
        ]
      }
    },
    {
      "type": "Feature",
      "id": "zone_43",
      "properties": {
        "name": "Hàng Dông",
        "tong_dt": 7385.0,
        "dt_ha": 0.74,
        "quy_1": 4320.0,
        "quy_2": 3065.0,
        "so_thua": 13,
        "so_ho": 7,
        "so_chu": 9,
        "to_list": "Tổ 1, Tổ 2, Tổ 3",
        "center": [
          15.964053,
          108.186179
        ]
      },
      "geometry": {
        "type": "Polygon",
        "coordinates": [
          [
            [
              108.187618,
              15.964053
            ],
            [
              108.187586,
              15.966398
            ],
            [
              108.185459,
              15.965252
            ],
            [
              108.183363,
              15.964053
            ],
            [
              108.185459,
              15.962855
            ],
            [
              108.187586,
              15.961709
            ],
            [
              108.187618,
              15.964053
            ]
          ]
        ]
      }
    },
    {
      "type": "Feature",
      "id": "zone_44",
      "properties": {
        "name": "Hà Ra 24",
        "tong_dt": 7173.0,
        "dt_ha": 0.72,
        "quy_1": 7173.0,
        "quy_2": 0.0,
        "so_thua": 9,
        "so_ho": 8,
        "so_chu": 9,
        "to_list": "Tổ 1, Tổ 2, Tổ 3, Tổ 4",
        "center": [
          15.958,
          108.2065
        ]
      },
      "geometry": {
        "type": "Polygon",
        "coordinates": [
          [
            [
              108.207981,
              15.958
            ],
            [
              108.207856,
              15.960258
            ],
            [
              108.205759,
              15.959233
            ],
            [
              108.203788,
              15.958
            ],
            [
              108.205759,
              15.956767
            ],
            [
              108.207856,
              15.955742
            ],
            [
              108.207981,
              15.958
            ]
          ]
        ]
      }
    },
    {
      "type": "Feature",
      "id": "zone_45",
      "properties": {
        "name": "Trung đồng - Lô 2",
        "tong_dt": 7131.0,
        "dt_ha": 0.71,
        "quy_1": 6473.0,
        "quy_2": 658.0,
        "so_thua": 10,
        "so_ho": 10,
        "so_chu": 10,
        "to_list": "Tổ 2, Tổ 3, Tổ 4, Tổ 5, Tổ 7, Tổ 8",
        "center": [
          15.9636,
          108.193
        ]
      },
      "geometry": {
        "type": "Polygon",
        "coordinates": [
          [
            [
              108.195103,
              15.9636
            ],
            [
              108.194039,
              15.96533
            ],
            [
              108.191948,
              15.965351
            ],
            [
              108.190923,
              15.9636
            ],
            [
              108.191948,
              15.961849
            ],
            [
              108.194039,
              15.96187
            ],
            [
              108.195103,
              15.9636
            ]
          ]
        ]
      }
    },
    {
      "type": "Feature",
      "id": "zone_46",
      "properties": {
        "name": "Lô 11 Thổ",
        "tong_dt": 6995.0,
        "dt_ha": 0.7,
        "quy_1": 6995.0,
        "quy_2": 0.0,
        "so_thua": 10,
        "so_ho": 9,
        "so_chu": 10,
        "to_list": "Tổ 2, Tổ 5, Tổ 6, Tổ 7, nan",
        "center": [
          15.957,
          108.1954
        ]
      },
      "geometry": {
        "type": "Polygon",
        "coordinates": [
          [
            [
              108.198092,
              15.957
            ],
            [
              108.196124,
              15.958206
            ],
            [
              108.194054,
              15.959242
            ],
            [
              108.193951,
              15.957
            ],
            [
              108.194054,
              15.954758
            ],
            [
              108.196124,
              15.955794
            ],
            [
              108.198092,
              15.957
            ]
          ]
        ]
      }
    },
    {
      "type": "Feature",
      "id": "zone_47",
      "properties": {
        "name": "Trung đồng - Lô 1",
        "tong_dt": 6918.0,
        "dt_ha": 0.69,
        "quy_1": 6918.0,
        "quy_2": 0.0,
        "so_thua": 11,
        "so_ho": 11,
        "so_chu": 11,
        "to_list": "Tổ 2, Tổ 3, Tổ 4, nan",
        "center": [
          15.9658,
          108.193
        ]
      },
      "geometry": {
        "type": "Polygon",
        "coordinates": [
          [
            [
              108.195714,
              15.9658
            ],
            [
              108.193702,
              15.966969
            ],
            [
              108.191643,
              15.96806
            ],
            [
              108.191596,
              15.9658
            ],
            [
              108.191643,
              15.96354
            ],
            [
              108.193702,
              15.964631
            ],
            [
              108.195714,
              15.9658
            ]
          ]
        ]
      }
    },
    {
      "type": "Feature",
      "id": "zone_48",
      "properties": {
        "name": "Lô 4(Thớt 2)",
        "tong_dt": 6750.0,
        "dt_ha": 0.68,
        "quy_1": 0.0,
        "quy_2": 6750.0,
        "so_thua": 27,
        "so_ho": 11,
        "so_chu": 27,
        "to_list": "Tổ 1, Tổ 4, Tổ 5",
        "center": [
          15.968,
          108.2098
        ]
      },
      "geometry": {
        "type": "Polygon",
        "coordinates": [
          [
            [
              108.211923,
              15.968
            ],
            [
              108.210773,
              15.96962
            ],
            [
              108.208739,
              15.969767
            ],
            [
              108.207855,
              15.968
            ],
            [
              108.208739,
              15.966233
            ],
            [
              108.210773,
              15.96638
            ],
            [
              108.211923,
              15.968
            ]
          ]
        ]
      }
    },
    {
      "type": "Feature",
      "id": "zone_49",
      "properties": {
        "name": "Hà Ra 31",
        "tong_dt": 6200.0,
        "dt_ha": 0.62,
        "quy_1": 6200.0,
        "quy_2": 0.0,
        "so_thua": 8,
        "so_ho": 7,
        "so_chu": 8,
        "to_list": "Tổ 2, Tổ 3, Tổ 4",
        "center": [
          15.9646,
          108.209
        ]
      },
      "geometry": {
        "type": "Polygon",
        "coordinates": [
          [
            [
              108.210421,
              15.9646
            ],
            [
              108.210239,
              15.966663
            ],
            [
              108.20829,
              15.965783
            ],
            [
              108.206522,
              15.9646
            ],
            [
              108.20829,
              15.963417
            ],
            [
              108.210239,
              15.962537
            ],
            [
              108.210421,
              15.9646
            ]
          ]
        ]
      }
    },
    {
      "type": "Feature",
      "id": "zone_50",
      "properties": {
        "name": "Lô 22 Thổ",
        "tong_dt": 6191.0,
        "dt_ha": 0.62,
        "quy_1": 6191.0,
        "quy_2": 0.0,
        "so_thua": 9,
        "so_ho": 8,
        "so_chu": 9,
        "to_list": "Tổ 5, Tổ 6, Tổ 7",
        "center": [
          15.9592,
          108.2002
        ]
      },
      "geometry": {
        "type": "Polygon",
        "coordinates": [
          [
            [
              108.201492,
              15.9592
            ],
            [
              108.201502,
              15.961368
            ],
            [
              108.199554,
              15.960276
            ],
            [
              108.197597,
              15.9592
            ],
            [
              108.199554,
              15.958124
            ],
            [
              108.201502,
              15.957032
            ],
            [
              108.201492,
              15.9592
            ]
          ]
        ]
      }
    },
    {
      "type": "Feature",
      "id": "zone_51",
      "properties": {
        "name": "Lô 15",
        "tong_dt": 6010.0,
        "dt_ha": 0.6,
        "quy_1": 6010.0,
        "quy_2": 0.0,
        "so_thua": 9,
        "so_ho": 9,
        "so_chu": 9,
        "to_list": "Tổ 2, Tổ 4, Tổ 5, Tổ 6, Tổ 7",
        "center": [
          15.9614,
          108.1978
        ]
      },
      "geometry": {
        "type": "Polygon",
        "coordinates": [
          [
            [
              108.199541,
              15.9614
            ],
            [
              108.198848,
              15.963146
            ],
            [
              108.196929,
              15.96285
            ],
            [
              108.195703,
              15.9614
            ],
            [
              108.196929,
              15.95995
            ],
            [
              108.198848,
              15.959654
            ],
            [
              108.199541,
              15.9614
            ]
          ]
        ]
      }
    },
    {
      "type": "Feature",
      "id": "zone_52",
      "properties": {
        "name": "Lô 19 Thổ",
        "tong_dt": 5700.0,
        "dt_ha": 0.57,
        "quy_1": 5700.0,
        "quy_2": 0.0,
        "so_thua": 7,
        "so_ho": 7,
        "so_chu": 7,
        "to_list": "Tổ 3, Tổ 4, Tổ 5, Tổ 7, Tổ 8, nan",
        "center": [
          15.9658,
          108.2002
        ]
      },
      "geometry": {
        "type": "Polygon",
        "coordinates": [
          [
            [
              108.202511,
              15.9658
            ],
            [
              108.200913,
              15.966988
            ],
            [
              108.199044,
              15.967724
            ],
            [
              108.198773,
              15.9658
            ],
            [
              108.199044,
              15.963876
            ],
            [
              108.200913,
              15.964612
            ],
            [
              108.202511,
              15.9658
            ]
          ]
        ]
      }
    },
    {
      "type": "Feature",
      "id": "zone_53",
      "properties": {
        "name": "Lô 23 Thổ",
        "tong_dt": 5393.0,
        "dt_ha": 0.54,
        "quy_1": 4705.0,
        "quy_2": 688.0,
        "so_thua": 9,
        "so_ho": 9,
        "so_chu": 9,
        "to_list": "Tổ 2, Tổ 3, Tổ 5, Tổ 7",
        "center": [
          15.957,
          108.2002
        ]
      },
      "geometry": {
        "type": "Polygon",
        "coordinates": [
          [
            [
              108.202651,
              15.957
            ],
            [
              108.200792,
              15.957987
            ],
            [
              108.198975,
              15.959041
            ],
            [
              108.199015,
              15.957
            ],
            [
              108.198975,
              15.954959
            ],
            [
              108.200792,
              15.956013
            ],
            [
              108.202651,
              15.957
            ]
          ]
        ]
      }
    },
    {
      "type": "Feature",
      "id": "zone_54",
      "properties": {
        "name": "Hà Ra 25",
        "tong_dt": 5003.0,
        "dt_ha": 0.5,
        "quy_1": 5003.0,
        "quy_2": 0.0,
        "so_thua": 6,
        "so_ho": 6,
        "so_chu": 6,
        "to_list": "Tổ 1, Tổ 2, Tổ 3",
        "center": [
          15.9602,
          108.2065
        ]
      },
      "geometry": {
        "type": "Polygon",
        "coordinates": [
          [
            [
              108.208496,
              15.9602
            ],
            [
              108.207253,
              15.961454
            ],
            [
              108.205502,
              15.961862
            ],
            [
              108.204994,
              15.9602
            ],
            [
              108.205502,
              15.958538
            ],
            [
              108.207253,
              15.958946
            ],
            [
              108.208496,
              15.9602
            ]
          ]
        ]
      }
    },
    {
      "type": "Feature",
      "id": "zone_55",
      "properties": {
        "name": "Trung đồng - Lô 3",
        "tong_dt": 4908.0,
        "dt_ha": 0.49,
        "quy_1": 4908.0,
        "quy_2": 0.0,
        "so_thua": 7,
        "so_ho": 7,
        "so_chu": 7,
        "to_list": "Tổ 1, Tổ 2, Tổ 3, Tổ 4, Tổ 5",
        "center": [
          15.9614,
          108.193
        ]
      },
      "geometry": {
        "type": "Polygon",
        "coordinates": [
          [
            [
              108.194392,
              15.9614
            ],
            [
              108.194038,
              15.963129
            ],
            [
              108.192304,
              15.962559
            ],
            [
              108.190924,
              15.9614
            ],
            [
              108.192304,
              15.960241
            ],
            [
              108.194038,
              15.959671
            ],
            [
              108.194392,
              15.9614
            ]
          ]
        ]
      }
    },
    {
      "type": "Feature",
      "id": "zone_56",
      "properties": {
        "name": "Lô 18 Thổ",
        "tong_dt": 4870.0,
        "dt_ha": 0.49,
        "quy_1": 3935.0,
        "quy_2": 935.0,
        "so_thua": 7,
        "so_ho": 6,
        "so_chu": 6,
        "to_list": "Tổ 5, Tổ 6, Tổ 7, nan",
        "center": [
          15.968,
          108.2002
        ]
      },
      "geometry": {
        "type": "Polygon",
        "coordinates": [
          [
            [
              108.201318,
              15.968
            ],
            [
              108.201369,
              15.969946
            ],
            [
              108.199641,
              15.968931
            ],
            [
              108.197863,
              15.968
            ],
            [
              108.199641,
              15.967069
            ],
            [
              108.201369,
              15.966054
            ],
            [
              108.201318,
              15.968
            ]
          ]
        ]
      }
    },
    {
      "type": "Feature",
      "id": "zone_57",
      "properties": {
        "name": "Lô 6-C Màu",
        "tong_dt": 4487.0,
        "dt_ha": 0.45,
        "quy_1": 4487.0,
        "quy_2": 0.0,
        "so_thua": 11,
        "so_ho": 10,
        "so_chu": 11,
        "to_list": "Tổ 4, Tổ 5, Tổ 6, Tổ 7, Tổ 8, nan",
        "center": [
          15.968,
          108.1954
        ]
      },
      "geometry": {
        "type": "Polygon",
        "coordinates": [
          [
            [
              108.196753,
              15.968
            ],
            [
              108.196382,
              15.969635
            ],
            [
              108.194724,
              15.969127
            ],
            [
              108.193437,
              15.968
            ],
            [
              108.194724,
              15.966873
            ],
            [
              108.196382,
              15.966365
            ],
            [
              108.196753,
              15.968
            ]
          ]
        ]
      }
    },
    {
      "type": "Feature",
      "id": "zone_58",
      "properties": {
        "name": "Lô 20 Thổ",
        "tong_dt": 4360.0,
        "dt_ha": 0.44,
        "quy_1": 3375.0,
        "quy_2": 985.0,
        "so_thua": 5,
        "so_ho": 5,
        "so_chu": 5,
        "to_list": "Tổ 3, Tổ 5, Tổ 7",
        "center": [
          15.9636,
          108.2002
        ]
      },
      "geometry": {
        "type": "Polygon",
        "coordinates": [
          [
            [
              108.202086,
              15.9636
            ],
            [
              108.200891,
              15.964751
            ],
            [
              108.199257,
              15.96517
            ],
            [
              108.198817,
              15.9636
            ],
            [
              108.199257,
              15.96203
            ],
            [
              108.200891,
              15.962449
            ],
            [
              108.202086,
              15.9636
            ]
          ]
        ]
      }
    },
    {
      "type": "Feature",
      "id": "zone_59",
      "properties": {
        "name": "Lô 7-C Màu",
        "tong_dt": 4224.0,
        "dt_ha": 0.42,
        "quy_1": 4224.0,
        "quy_2": 0.0,
        "so_thua": 9,
        "so_ho": 9,
        "so_chu": 9,
        "to_list": "Tổ 3, Tổ 5, Tổ 6, Tổ 8",
        "center": [
          15.9658,
          108.1954
        ]
      },
      "geometry": {
        "type": "Polygon",
        "coordinates": [
          [
            [
              108.197573,
              15.9658
            ],
            [
              108.195923,
              15.96667
            ],
            [
              108.194314,
              15.967609
            ],
            [
              108.194355,
              15.9658
            ],
            [
              108.194314,
              15.963991
            ],
            [
              108.195923,
              15.96493
            ],
            [
              108.197573,
              15.9658
            ]
          ]
        ]
      }
    },
    {
      "type": "Feature",
      "id": "zone_60",
      "properties": {
        "name": "Lô 9-Lúa",
        "tong_dt": 4180.0,
        "dt_ha": 0.42,
        "quy_1": 4180.0,
        "quy_2": 0.0,
        "so_thua": 10,
        "so_ho": 10,
        "so_chu": 10,
        "to_list": "Tổ 2, Tổ 3, Tổ 5, Tổ 6, Tổ 7, Tổ 8",
        "center": [
          15.9614,
          108.1954
        ]
      },
      "geometry": {
        "type": "Polygon",
        "coordinates": [
          [
            [
              108.19736,
              15.9614
            ],
            [
              108.19602,
              15.962433
            ],
            [
              108.19442,
              15.963032
            ],
            [
              108.194159,
              15.9614
            ],
            [
              108.19442,
              15.959768
            ],
            [
              108.19602,
              15.960367
            ],
            [
              108.19736,
              15.9614
            ]
          ]
        ]
      }
    },
    {
      "type": "Feature",
      "id": "zone_61",
      "properties": {
        "name": "Lô 16 Thổ",
        "tong_dt": 4070.0,
        "dt_ha": 0.41,
        "quy_1": 4070.0,
        "quy_2": 0.0,
        "so_thua": 5,
        "so_ho": 5,
        "so_chu": 5,
        "to_list": "Tổ 5, Tổ 6, Tổ 7",
        "center": [
          15.9592,
          108.1978
        ]
      },
      "geometry": {
        "type": "Polygon",
        "coordinates": [
          [
            [
              108.199209,
              15.9592
            ],
            [
              108.198675,
              15.960656
            ],
            [
              108.197095,
              15.960373
            ],
            [
              108.196051,
              15.9592
            ],
            [
              108.197095,
              15.958027
            ],
            [
              108.198675,
              15.957744
            ],
            [
              108.199209,
              15.9592
            ]
          ]
        ]
      }
    },
    {
      "type": "Feature",
      "id": "zone_62",
      "properties": {
        "name": "Lô 15 Thổ",
        "tong_dt": 4029.0,
        "dt_ha": 0.4,
        "quy_1": 3629.0,
        "quy_2": 400.0,
        "so_thua": 6,
        "so_ho": 6,
        "so_chu": 6,
        "to_list": "Tổ 4, Tổ 5, Tổ 6, nan",
        "center": [
          15.9614,
          108.1978
        ]
      },
      "geometry": {
        "type": "Polygon",
        "coordinates": [
          [
            [
              108.198835,
              15.9614
            ],
            [
              108.198854,
              15.963154
            ],
            [
              108.197282,
              15.962262
            ],
            [
              108.195693,
              15.9614
            ],
            [
              108.197282,
              15.960538
            ],
            [
              108.198854,
              15.959646
            ],
            [
              108.198835,
              15.9614
            ]
          ]
        ]
      }
    },
    {
      "type": "Feature",
      "id": "zone_63",
      "properties": {
        "name": "Lô 13 Màu",
        "tong_dt": 3800.0,
        "dt_ha": 0.38,
        "quy_1": 0.0,
        "quy_2": 3800.0,
        "so_thua": 5,
        "so_ho": 5,
        "so_chu": 5,
        "to_list": "Tổ 4, Tổ 8",
        "center": [
          15.9658,
          108.1978
        ]
      },
      "geometry": {
        "type": "Polygon",
        "coordinates": [
          [
            [
              108.198928,
              15.9658
            ],
            [
              108.198762,
              15.967402
            ],
            [
              108.197236,
              15.966739
            ],
            [
              108.195876,
              15.9658
            ],
            [
              108.197236,
              15.964861
            ],
            [
              108.198762,
              15.964198
            ],
            [
              108.198928,
              15.9658
            ]
          ]
        ]
      }
    },
    {
      "type": "Feature",
      "id": "zone_64",
      "properties": {
        "name": "Bầu Ấu",
        "tong_dt": 3785.0,
        "dt_ha": 0.38,
        "quy_1": 630.0,
        "quy_2": 3155.0,
        "so_thua": 5,
        "so_ho": 3,
        "so_chu": 4,
        "to_list": "Tổ 1, Tổ 3, Tổ 4",
        "center": [
          15.969369,
          108.190186
        ]
      },
      "geometry": {
        "type": "Polygon",
        "coordinates": [
          [
            [
              108.191799,
              15.969369
            ],
            [
              108.190902,
              15.970562
            ],
            [
              108.189379,
              15.970712
            ],
            [
              108.188753,
              15.969369
            ],
            [
              108.189379,
              15.968026
            ],
            [
              108.190902,
              15.968176
            ],
            [
              108.191799,
              15.969369
            ]
          ]
        ]
      }
    },
    {
      "type": "Feature",
      "id": "zone_65",
      "properties": {
        "name": "Lô 5-C Màu",
        "tong_dt": 3641.0,
        "dt_ha": 0.36,
        "quy_1": 3641.0,
        "quy_2": 0.0,
        "so_thua": 15,
        "so_ho": 14,
        "so_chu": 15,
        "to_list": "Tổ 2, Tổ 3, Tổ 5, Tổ 6, Tổ 7, Tổ 8, nan",
        "center": [
          15.957,
          108.193
        ]
      },
      "geometry": {
        "type": "Polygon",
        "coordinates": [
          [
            [
              108.194979,
              15.957
            ],
            [
              108.193504,
              15.95784
            ],
            [
              108.192011,
              15.958648
            ],
            [
              108.191991,
              15.957
            ],
            [
              108.192011,
              15.955352
            ],
            [
              108.193504,
              15.95616
            ],
            [
              108.194979,
              15.957
            ]
          ]
        ]
      }
    },
    {
      "type": "Feature",
      "id": "zone_66",
      "properties": {
        "name": "Triền bàu",
        "tong_dt": 3471.0,
        "dt_ha": 0.35,
        "quy_1": 3471.0,
        "quy_2": 0.0,
        "so_thua": 5,
        "so_ho": 4,
        "so_chu": 4,
        "to_list": "Tổ 2, Tổ 3, nan",
        "center": [
          15.968889,
          108.195431
        ]
      },
      "geometry": {
        "type": "Polygon",
        "coordinates": [
          [
            [
              108.197315,
              15.968889
            ],
            [
              108.195947,
              15.969749
            ],
            [
              108.194489,
              15.970458
            ],
            [
              108.194398,
              15.968889
            ],
            [
              108.194489,
              15.967321
            ],
            [
              108.195947,
              15.968029
            ],
            [
              108.197315,
              15.968889
            ]
          ]
        ]
      }
    },
    {
      "type": "Feature",
      "id": "zone_67",
      "properties": {
        "name": "Vườn Đình - Màu (T1)",
        "tong_dt": 3454.0,
        "dt_ha": 0.35,
        "quy_1": 3454.0,
        "quy_2": 0.0,
        "so_thua": 15,
        "so_ho": 12,
        "so_chu": 15,
        "to_list": "Tổ 1, Tổ 2, Tổ 3, nan",
        "center": [
          15.968731,
          108.198864
        ]
      },
      "geometry": {
        "type": "Polygon",
        "coordinates": [
          [
            [
              108.200306,
              15.968731
            ],
            [
              108.199599,
              15.969954
            ],
            [
              108.198144,
              15.969931
            ],
            [
              108.197396,
              15.968731
            ],
            [
              108.198144,
              15.967531
            ],
            [
              108.199599,
              15.967508
            ],
            [
              108.200306,
              15.968731
            ]
          ]
        ]
      }
    },
    {
      "type": "Feature",
      "id": "zone_68",
      "properties": {
        "name": "Hà Ra 30",
        "tong_dt": 3445.0,
        "dt_ha": 0.34,
        "quy_1": 3445.0,
        "quy_2": 0.0,
        "so_thua": 4,
        "so_ho": 3,
        "so_chu": 4,
        "to_list": "Tổ 1, Tổ 2",
        "center": [
          15.9624,
          108.209
        ]
      },
      "geometry": {
        "type": "Polygon",
        "coordinates": [
          [
            [
              108.210014,
              15.9624
            ],
            [
              108.209946,
              15.963975
            ],
            [
              108.208493,
              15.963244
            ],
            [
              108.207108,
              15.9624
            ],
            [
              108.208493,
              15.961556
            ],
            [
              108.209946,
              15.960825
            ],
            [
              108.210014,
              15.9624
            ]
          ]
        ]
      }
    },
    {
      "type": "Feature",
      "id": "zone_69",
      "properties": {
        "name": "Cồn Đình-\nVen Vườn",
        "tong_dt": 3402.0,
        "dt_ha": 0.34,
        "quy_1": 3402.0,
        "quy_2": 0.0,
        "so_thua": 4,
        "so_ho": 4,
        "so_chu": 4,
        "to_list": "Tổ 2, Tổ 3, Tổ 5, Tổ 7",
        "center": [
          15.969558,
          108.206144
        ]
      },
      "geometry": {
        "type": "Polygon",
        "coordinates": [
          [
            [
              108.20713,
              15.969558
            ],
            [
              108.207095,
              15.971141
            ],
            [
              108.205651,
              15.970379
            ],
            [
              108.204243,
              15.969558
            ],
            [
              108.205651,
              15.968737
            ],
            [
              108.207095,
              15.967975
            ],
            [
              108.20713,
              15.969558
            ]
          ]
        ]
      }
    },
    {
      "type": "Feature",
      "id": "zone_70",
      "properties": {
        "name": "Lô 24 Thổ",
        "tong_dt": 3229.0,
        "dt_ha": 0.32,
        "quy_1": 3229.0,
        "quy_2": 0.0,
        "so_thua": 7,
        "so_ho": 7,
        "so_chu": 7,
        "to_list": "Tổ 2, Tổ 5, Tổ 6, Tổ 7, Tổ 8, nan",
        "center": [
          15.968,
          108.2026
        ]
      },
      "geometry": {
        "type": "Polygon",
        "coordinates": [
          [
            [
              108.20395,
              15.968
            ],
            [
              108.203332,
              15.969219
            ],
            [
              108.201925,
              15.969124
            ],
            [
              108.201136,
              15.968
            ],
            [
              108.201925,
              15.966876
            ],
            [
              108.203332,
              15.966781
            ],
            [
              108.20395,
              15.968
            ]
          ]
        ]
      }
    },
    {
      "type": "Feature",
      "id": "zone_71",
      "properties": {
        "name": "Lô 8-C Màu",
        "tong_dt": 3155.0,
        "dt_ha": 0.32,
        "quy_1": 3155.0,
        "quy_2": 0.0,
        "so_thua": 8,
        "so_ho": 8,
        "so_chu": 8,
        "to_list": "Tổ 5, Tổ 6, Tổ 7",
        "center": [
          15.9636,
          108.1954
        ]
      },
      "geometry": {
        "type": "Polygon",
        "coordinates": [
          [
            [
              108.19717,
              15.9636
            ],
            [
              108.195905,
              15.964442
            ],
            [
              108.194515,
              15.965074
            ],
            [
              108.194389,
              15.9636
            ],
            [
              108.194515,
              15.962126
            ],
            [
              108.195905,
              15.962758
            ],
            [
              108.19717,
              15.9636
            ]
          ]
        ]
      }
    },
    {
      "type": "Feature",
      "id": "zone_72",
      "properties": {
        "name": "Trung đồng B",
        "tong_dt": 2952.0,
        "dt_ha": 0.3,
        "quy_1": 1952.0,
        "quy_2": 1000.0,
        "so_thua": 7,
        "so_ho": 3,
        "so_chu": 4,
        "to_list": "Tổ 8",
        "center": [
          15.964,
          108.2
        ]
      },
      "geometry": {
        "type": "Polygon",
        "coordinates": [
          [
            [
              108.201796,
              15.964
            ],
            [
              108.200447,
              15.964744
            ],
            [
              108.199102,
              15.965496
            ],
            [
              108.199106,
              15.964
            ],
            [
              108.199102,
              15.962504
            ],
            [
              108.200447,
              15.963256
            ],
            [
              108.201796,
              15.964
            ]
          ]
        ]
      }
    },
    {
      "type": "Feature",
      "id": "zone_73",
      "properties": {
        "name": "Lô 10 Màu",
        "tong_dt": 2875.0,
        "dt_ha": 0.29,
        "quy_1": 0.0,
        "quy_2": 2875.0,
        "so_thua": 3,
        "so_ho": 3,
        "so_chu": 3,
        "to_list": "Tổ 6, Tổ 7",
        "center": [
          15.9592,
          108.1954
        ]
      },
      "geometry": {
        "type": "Polygon",
        "coordinates": [
          [
            [
              108.196846,
              15.9592
            ],
            [
              108.196004,
              15.960206
            ],
            [
              108.194677,
              15.960404
            ],
            [
              108.194192,
              15.9592
            ],
            [
              108.194677,
              15.957996
            ],
            [
              108.196004,
              15.958194
            ],
            [
              108.196846,
              15.9592
            ]
          ]
        ]
      }
    },
    {
      "type": "Feature",
      "id": "zone_74",
      "properties": {
        "name": "Lô Kẹp Bờ Ao",
        "tong_dt": 2662.0,
        "dt_ha": 0.27,
        "quy_1": 2662.0,
        "quy_2": 0.0,
        "so_thua": 3,
        "so_ho": 3,
        "so_chu": 3,
        "to_list": "Tổ 2, nan",
        "center": [
          15.9658,
          108.193
        ]
      },
      "geometry": {
        "type": "Polygon",
        "coordinates": [
          [
            [
              108.193972,
              15.9658
            ],
            [
              108.193791,
              15.967117
            ],
            [
              108.192514,
              15.966609
            ],
            [
              108.191418,
              15.9658
            ],
            [
              108.192514,
              15.964991
            ],
            [
              108.193791,
              15.964483
            ],
            [
              108.193972,
              15.9658
            ]
          ]
        ]
      }
    },
    {
      "type": "Feature",
      "id": "zone_75",
      "properties": {
        "name": "Trung đồng - Lô 5",
        "tong_dt": 2640.0,
        "dt_ha": 0.26,
        "quy_1": 1555.0,
        "quy_2": 1085.0,
        "so_thua": 4,
        "so_ho": 4,
        "so_chu": 4,
        "to_list": "Tổ 3, Tổ 4",
        "center": [
          15.957,
          108.193
        ]
      },
      "geometry": {
        "type": "Polygon",
        "coordinates": [
          [
            [
              108.19383,
              15.957
            ],
            [
              108.193857,
              15.958427
            ],
            [
              108.192585,
              15.957691
            ],
            [
              108.191286,
              15.957
            ],
            [
              108.192585,
              15.956309
            ],
            [
              108.193857,
              15.955573
            ],
            [
              108.19383,
              15.957
            ]
          ]
        ]
      }
    },
    {
      "type": "Feature",
      "id": "zone_76",
      "properties": {
        "name": "Lô 21 Thổ",
        "tong_dt": 2550.0,
        "dt_ha": 0.26,
        "quy_1": 2550.0,
        "quy_2": 0.0,
        "so_thua": 5,
        "so_ho": 4,
        "so_chu": 4,
        "to_list": "Tổ 3, Tổ 7, nan",
        "center": [
          15.9614,
          108.2002
        ]
      },
      "geometry": {
        "type": "Polygon",
        "coordinates": [
          [
            [
              108.201279,
              15.9614
            ],
            [
              108.200911,
              15.962583
            ],
            [
              108.199661,
              15.962298
            ],
            [
              108.198779,
              15.9614
            ],
            [
              108.199661,
              15.960502
            ],
            [
              108.200911,
              15.960217
            ],
            [
              108.201279,
              15.9614
            ]
          ]
        ]
      }
    },
    {
      "type": "Feature",
      "id": "zone_77",
      "properties": {
        "name": "Trung đồng - Lô 4",
        "tong_dt": 2464.0,
        "dt_ha": 0.25,
        "quy_1": 1614.0,
        "quy_2": 850.0,
        "so_thua": 3,
        "so_ho": 3,
        "so_chu": 3,
        "to_list": "Tổ 3, Tổ 4",
        "center": [
          15.9592,
          108.193
        ]
      },
      "geometry": {
        "type": "Polygon",
        "coordinates": [
          [
            [
              108.194474,
              15.9592
            ],
            [
              108.193492,
              15.960019
            ],
            [
              108.192263,
              15.960428
            ],
            [
              108.192017,
              15.9592
            ],
            [
              108.192263,
              15.957972
            ],
            [
              108.193492,
              15.958381
            ],
            [
              108.194474,
              15.9592
            ]
          ]
        ]
      }
    },
    {
      "type": "Feature",
      "id": "zone_78",
      "properties": {
        "name": "Vườn Đình - Màu (T4)",
        "tong_dt": 2044.0,
        "dt_ha": 0.2,
        "quy_1": 2044.0,
        "quy_2": 0.0,
        "so_thua": 14,
        "so_ho": 14,
        "so_chu": 14,
        "to_list": "Tổ 2, Tổ 3, Tổ 4",
        "center": [
          15.97148,
          108.202945
        ]
      },
      "geometry": {
        "type": "Polygon",
        "coordinates": [
          [
            [
              108.204459,
              15.97148
            ],
            [
              108.203307,
              15.972084
            ],
            [
              108.202188,
              15.972741
            ],
            [
              108.202221,
              15.97148
            ],
            [
              108.202188,
              15.97022
            ],
            [
              108.203307,
              15.970877
            ],
            [
              108.204459,
              15.97148
            ]
          ]
        ]
      }
    },
    {
      "type": "Feature",
      "id": "zone_79",
      "properties": {
        "name": "Vườn Đình - Màu (T3)",
        "tong_dt": 2000.0,
        "dt_ha": 0.2,
        "quy_1": 2000.0,
        "quy_2": 0.0,
        "so_thua": 8,
        "so_ho": 8,
        "so_chu": 8,
        "to_list": "Tổ 3, nan",
        "center": [
          15.972365,
          108.205987
        ]
      },
      "geometry": {
        "type": "Polygon",
        "coordinates": [
          [
            [
              108.207295,
              15.972365
            ],
            [
              108.20644,
              15.973119
            ],
            [
              108.205333,
              15.973454
            ],
            [
              108.205081,
              15.972365
            ],
            [
              108.205333,
              15.971276
            ],
            [
              108.20644,
              15.97161
            ],
            [
              108.207295,
              15.972365
            ]
          ]
        ]
      }
    },
    {
      "type": "Feature",
      "id": "zone_80",
      "properties": {
        "name": "Lô 17 Thổ",
        "tong_dt": 1845.0,
        "dt_ha": 0.18,
        "quy_1": 1385.0,
        "quy_2": 460.0,
        "so_thua": 2,
        "so_ho": 2,
        "so_chu": 2,
        "to_list": "Tổ 5, Tổ 6",
        "center": [
          15.957,
          108.1978
        ]
      },
      "geometry": {
        "type": "Polygon",
        "coordinates": [
          [
            [
              108.198697,
              15.957
            ],
            [
              108.198415,
              15.958024
            ],
            [
              108.197352,
              15.957747
            ],
            [
              108.19657,
              15.957
            ],
            [
              108.197352,
              15.956253
            ],
            [
              108.198415,
              15.955976
            ],
            [
              108.198697,
              15.957
            ]
          ]
        ]
      }
    },
    {
      "type": "Feature",
      "id": "zone_81",
      "properties": {
        "name": "Thổ Chiểu - Màu (T2)",
        "tong_dt": 1540.0,
        "dt_ha": 0.15,
        "quy_1": 1540.0,
        "quy_2": 0.0,
        "so_thua": 10,
        "so_ho": 10,
        "so_chu": 10,
        "to_list": "Tổ 2",
        "center": [
          15.974326,
          108.179432
        ]
      },
      "geometry": {
        "type": "Polygon",
        "coordinates": [
          [
            [
              108.180063,
              15.974326
            ],
            [
              108.180088,
              15.975418
            ],
            [
              108.179117,
              15.974851
            ],
            [
              108.17812,
              15.974326
            ],
            [
              108.179117,
              15.973801
            ],
            [
              108.180088,
              15.973233
            ],
            [
              108.180063,
              15.974326
            ]
          ]
        ]
      }
    },
    {
      "type": "Feature",
      "id": "zone_82",
      "properties": {
        "name": "Khe - Đất Màu",
        "tong_dt": 1025.0,
        "dt_ha": 0.1,
        "quy_1": 0.0,
        "quy_2": 1025.0,
        "so_thua": 4,
        "so_ho": 3,
        "so_chu": 3,
        "to_list": "Tổ 3, Tổ 4, Tổ 5",
        "center": [
          15.974497,
          108.183234
        ]
      },
      "geometry": {
        "type": "Polygon",
        "coordinates": [
          [
            [
              108.18385,
              15.974497
            ],
            [
              108.183718,
              15.975303
            ],
            [
              108.182926,
              15.97501
            ],
            [
              108.182265,
              15.974497
            ],
            [
              108.182926,
              15.973983
            ],
            [
              108.183718,
              15.97369
            ],
            [
              108.18385,
              15.974497
            ]
          ]
        ]
      }
    },
    {
      "type": "Feature",
      "id": "zone_83",
      "properties": {
        "name": "Cồn Đình-Ven Vườn",
        "tong_dt": 651.0,
        "dt_ha": 0.07,
        "quy_1": 0.0,
        "quy_2": 651.0,
        "so_thua": 2,
        "so_ho": 2,
        "so_chu": 2,
        "to_list": "Tổ 7, nan",
        "center": [
          15.975352,
          108.186986
        ]
      },
      "geometry": {
        "type": "Polygon",
        "coordinates": [
          [
            [
              108.187856,
              15.975352
            ],
            [
              108.187334,
              15.975932
            ],
            [
              108.186552,
              15.976076
            ],
            [
              108.18629,
              15.975352
            ],
            [
              108.186552,
              15.974629
            ],
            [
              108.187334,
              15.974773
            ],
            [
              108.187856,
              15.975352
            ]
          ]
        ]
      }
    },
    {
      "type": "Feature",
      "id": "zone_84",
      "properties": {
        "name": "Thổ Chiểu - Màu (T3)",
        "tong_dt": 524.0,
        "dt_ha": 0.05,
        "quy_1": 524.0,
        "quy_2": 0.0,
        "so_thua": 2,
        "so_ho": 2,
        "so_chu": 2,
        "to_list": "Tổ 2, Tổ 3",
        "center": [
          15.974961,
          108.18988
        ]
      },
      "geometry": {
        "type": "Polygon",
        "coordinates": [
          [
            [
              108.19093,
              15.974961
            ],
            [
              108.190137,
              15.97539
            ],
            [
              108.189354,
              15.975836
            ],
            [
              108.189364,
              15.974961
            ],
            [
              108.189354,
              15.974086
            ],
            [
              108.190137,
              15.974532
            ],
            [
              108.19093,
              15.974961
            ]
          ]
        ]
      }
    },
    {
      "type": "Feature",
      "id": "zone_85",
      "properties": {
        "name": "Lô 8 Màu",
        "tong_dt": 336.0,
        "dt_ha": 0.03,
        "quy_1": 0.0,
        "quy_2": 336.0,
        "so_thua": 1,
        "so_ho": 1,
        "so_chu": 1,
        "to_list": "Tổ 5",
        "center": [
          15.9636,
          108.1954
        ]
      },
      "geometry": {
        "type": "Polygon",
        "coordinates": [
          [
            [
              108.196385,
              15.9636
            ],
            [
              108.19569,
              15.964083
            ],
            [
              108.194907,
              15.96442
            ],
            [
              108.19482,
              15.9636
            ],
            [
              108.194907,
              15.96278
            ],
            [
              108.19569,
              15.963117
            ],
            [
              108.196385,
              15.9636
            ]
          ]
        ]
      }
    }
  ]
}